STARLINK-33636          
1 63379U 25063S   26005.21156350  .00029324  00000+0  99783-3 0  9998
2 63379  53.1626 347.1013 0001392  92.1847 267.9314 15.30214549 44990
STARLINK-33653          
1 63380U 25063T   26005.16524370  .00035427  00000+0  12022-2 0  9996
2 63380  53.1605 347.5245 0001011  67.7039 292.4069 15.30209825 44989
STARLINK-33643          
1 63381U 25063U   26005.15996684  .00016470  00000+0  56682-3 0  9995
2 63381  53.1610 347.4879 0001249  87.7477 272.3667 15.30207784 45039
STARLINK-33633          
1 63382U 25063V   26005.33334491  .00085288  00000+0  24163-2 0  9999
2 63382  53.1622 342.2392 0001044  91.1832 245.1812 15.35556351  5941
STARLINK-33748          
1 63383U 25063W   26005.29800810  .00034732  00000+0  11787-2 0  9994
2 63383  53.1627 357.5778 0001199  80.7109 279.4027 15.30215548 44908
STARLINK-33658          
1 63384U 25063X   26005.24427476  .00033740  00000+0  11454-2 0  9992
2 63384  53.1601 347.2992 0001125 103.3192 256.7935 15.30219661 45040
STARLINK-33616          
1 63385U 25063Y   26005.29589787  .00033581  00000+0  11402-2 0  9998
2 63385  53.1627 357.5726 0001260  89.6571 270.4574 15.30217761 44854
STARLINK-33571          
1 63386U 25063Z   26005.15048962  .00029587  00000+0  10067-2 0  9996
2 63386  53.1611 358.0600 0001199  94.7728 265.3410 15.30214263 44831
STARLINK-33533          
1 63387U 25063AA  26005.26157349  .00034917  00000+0  11848-2 0  9990
2 63387  53.1621 344.5740 0001055  81.4951 278.6170 15.30218952 45032
STARLINK-33629          
1 63388U 25063AB  26005.20575770  .00037294  00000+0  12642-2 0  9991
2 63388  53.1623 344.9323 0001464  85.3269 274.7899 15.30219649 45078
STARLINK-33656          
1 63389U 25063AC  26005.16946368  .00039703  00000+0  13444-2 0  9990
2 63389  53.1601 347.5469 0000727  94.1211 265.9873 15.30226396 45038
STARLINK-33531          
1 63399U 25065A   26005.28293349  .00039844  00000+0  14484-2 0  9991
2 63399  42.9974 105.0882 0002440 280.5444  79.5133 15.27604754 43149
STARLINK-33652          
1 63400U 25065B   26005.32261808  .00041387  00000+0  15034-2 0  9991
2 63400  43.0050 104.5233 0002249 274.2870  85.7724 15.27615921 43157
STARLINK-33707          
1 63401U 25065C   26005.27908140  .00048644  00000+0  17642-2 0  9993
2 63401  43.0004 105.0651 0000566 280.7910  79.2878 15.27605030 43141
STARLINK-33668          
1 63402U 25065D   26005.29707018  .00046611  00000+0  16912-2 0  9998
2 63402  43.0000 105.1958 0003120 295.6391  64.4138 15.27606583 43145
STARLINK-33676          
1 63403U 25065E   26005.27779339  .00049206  00000+0  17839-2 0  9994
2 63403  42.9991 105.0488 0002769 285.1628  74.8917 15.27611502 43142
STARLINK-33711          
1 63404U 25065F   26005.32133537  .00039363  00000+0  14308-2 0  9996
2 63404  43.0050 104.5174 0002086 277.1086  82.9528 15.27613987 43156
STARLINK-33708          
1 63405U 25065G   26005.28164738  .00048155  00000+0  17468-2 0  9998
2 63405  42.9996 105.0748 0001502 279.7895  80.2787 15.27603641 43148
STARLINK-33690          
1 63406U 25065H   26005.25129420  .00046528  00000+0  16880-2 0  9994
2 63406  42.9987 101.3864 0000789 205.4181 154.6632 15.27613472 43189
STARLINK-33694          
1 63407U 25065J   26005.27393405  .00045522  00000+0  16522-2 0  9999
2 63407  42.9943 105.0083 0000680 284.8551  75.2225 15.27607625 43143
STARLINK-33692          
1 63408U 25065K   26004.59788718  .00034547  00000+0  12588-2 0  9992
2 63408  43.0011 112.8587 0001525 278.4776  81.5902 15.27585713 42991
STARLINK-33693          
1 63409U 25065L   26005.29192940  .00034279  00000+0  12482-2 0  9992
2 63409  43.0007 105.1474 0001942 282.9286  77.1348 15.27611142 43145
STARLINK-33677          
1 63410U 25065M   26005.28421578  .00042322  00000+0  15372-2 0  9994
2 63410  42.9985 105.0853 0003491 282.8268  77.2194 15.27607920 43149
STARLINK-33647          
1 63411U 25065N   26005.33207825  .00039495  00000+0  14361-2 0  9992
2 63411  43.0019 112.3824 0000655 286.0295  74.0484 15.27601895 43067
STARLINK-33645          
1 63412U 25065P   26005.27601318  .00037737  00000+0  13732-2 0  9999
2 63412  43.0039 108.4204 0001295 299.6577  60.4145 15.27596714 43103
STARLINK-33670          
1 63413U 25065Q   26005.28035424  .00042867  00000+0  15579-2 0  9991
2 63413  42.9971 105.0229 0001647 271.1000  88.9663 15.27586657 43143
STARLINK-33644          
1 63414U 25065R   26005.26122775  .00029400  00000+0  10730-2 0  9998
2 63414  43.0029 105.7315 0000685 268.3929  91.6845 15.27599786 43131
STARLINK-33664          
1 63415U 25065S   26005.28806576  .00039025  00000+0  14191-2 0  9998
2 63415  42.9972 105.0753 0003978 288.4626  71.5793 15.27600283 43146
STARLINK-33649          
1 63416U 25065T   26004.55595772  .00027133  00000+0  99254-3 0  9992
2 63416  43.0031 109.0282 0001630 274.5896  85.4770 15.27558494 43037
STARLINK-33535          
1 63417U 25065U   26005.28677565  .00040018  00000+0  14548-2 0  9994
2 63417  43.0015 105.0417 0004420 282.4791  77.5566 15.27598441 43141
STARLINK-33703          
1 63418U 25065V   26004.58808504  .00044960  00000+0  16331-2 0  9998
2 63418  43.0012 109.2781 0001521 278.7663  81.3016 15.27585881 43039
STARLINK-33709          
1 63419U 25065W   26005.24580935  .00052376  00000+0  18978-2 0  9997
2 63419  43.0072 105.6223 0003430 292.9966  67.0524 15.27603884 43132
STARLINK-33698          
1 63420U 25065X   26005.00595198  .00026506  00000+0  96865-3 0  9998
2 63420  43.0048 106.3753 0002302 273.4383  86.6205 15.27600022 43108
STARLINK-33606          
1 63421U 25065Y   26005.28549403  .00040479  00000+0  14712-2 0  9992
2 63421  43.0007 105.0420 0003621 287.2656  72.7799 15.27603736 43145
STARLINK-33686          
1 63422U 25065Z   26005.29577452  .00044417  00000+0  16127-2 0  9997
2 63422  43.0003 105.1206 0003066 286.4139  73.6376 15.27602409 43142
STARLINK-33675          
1 63423U 25065AA  26005.00209923  .00025782  00000+0  94268-3 0  9999
2 63423  43.0063 106.3546 0001436 270.7389  89.3298 15.27597064 43104
STARLINK-33655          
1 63424U 25065AB  26004.73042001  .00031688  00000+0  11558-2 0  9993
2 63424  43.0021 108.6133 0001339 262.6685  97.4015 15.27587345 43059
STARLINK-33608          
1 63425U 25065AC  26005.29320216  .00031085  00000+0  11340-2 0  9993
2 63425  42.9970 105.0883 0000485 254.3472 105.7326 15.27590405 43146
STARLINK-33615          
1 63426U 25065AD  26004.59579542  .00034423  00000+0  12540-2 0  9996
2 63426  43.0010 109.3323 0000974 275.5115  84.5626 15.27596603 43033
STARLINK-33682          
1 63433U 25069A   26005.33143745  .00033521  00000+0  11378-2 0  9999
2 63433  53.1597  76.8194 0001517 107.9932 252.1234 15.30227328 43707
STARLINK-33710          
1 63434U 25069B   26005.21771037  .00025576  00000+0  87340-3 0  9992
2 63434  53.1578  77.5343 0001434 105.4443 254.6716 15.30172820 43684
STARLINK-33733          
1 63435U 25069C   26005.21452639  .00028744  00000+0  97819-3 0  9999
2 63435  53.1571  77.5110 0000901  81.5816 278.5287 15.30221626 43683
STARLINK-33638          
1 63436U 25069D   26005.21136220  .00033922  00000+0  11513-2 0  9995
2 63436  53.1569  77.4940 0001159  73.8906 286.2223 15.30224683 43683
STARLINK-33726          
1 63437U 25069E   26005.20608646  .00045738  00000+0  15454-2 0  9997
2 63437  53.1586  77.4596 0001349  96.1697 263.9457 15.30232261 43633
STARLINK-33681          
1 63438U 25069F   26005.19869982  .00035767  00000+0  12132-2 0  9999
2 63438  53.1597  77.4124 0001594 112.1525 247.9645 15.30220378 43686
STARLINK-33730          
1 63439U 25069G   26004.91105938  .00041231  00000+0  13957-2 0  9992
2 63439  53.1599  78.4597 0001115  83.3506 276.7622 15.30218310 43645
STARLINK-33743          
1 63440U 25069H   26004.48974019  .00044631  00000+0  15118-2 0  9998
2 63440  53.1584  80.8098 0000968  93.8492 266.2619 15.30161054 43461
STARLINK-33715          
1 63441U 25069J   26004.55188970  .00039928  00000+0  13542-2 0  9992
2 63441  53.1592  80.4806 0001260  63.4718 296.6411 15.30171673 43582
STARLINK-33762          
1 63442U 25069K   26005.20292209  .00044035  00000+0  14887-2 0  9995
2 63442  53.1597  77.4399 0001105  61.0560 299.0551 15.30229299 43689
STARLINK-33753          
1 63443U 25069L   26005.19236735  .00030803  00000+0  10472-2 0  9990
2 63443  53.1604  77.3722 0001701  94.1224 265.9972 15.30220064 43673
STARLINK-33747          
1 63444U 25069M   26004.92477851  .00029786  00000+0  10135-2 0  9991
2 63444  53.1605  78.5463 0001251  63.4805 296.6324 15.30209390 43596
STARLINK-33659          
1 63445U 25069N   26005.22402366  .00029529  00000+0  10044-2 0  9999
2 63445  53.1572  77.5693 0000983 106.9462 253.1647 15.30223903 43634
STARLINK-33746          
1 63446U 25069P   26005.19764342  .00032078  00000+0  10898-2 0  9991
2 63446  53.1599  77.4011 0001803 102.9883 257.1320 15.30221215 43638
STARLINK-33799          
1 63447U 25069Q   26005.22192943  .00053768  00000+0  18164-2 0  9991
2 63447  53.1581  77.5551 0001290  58.0305 302.0821 15.30164650 43578
STARLINK-33797          
1 63448U 25069R   26005.17970049  .00017302  00000+0  59468-3 0  9994
2 63448  53.1625  77.2915 0001448  87.1293 272.9874 15.30213545 43631
STARLINK-33798          
1 63449U 25069S   26005.22507778  .00030429  00000+0  10346-2 0  9992
2 63449  53.1577  77.5614 0001099 101.3209 258.7916 15.30222376 43412
STARLINK-33736          
1 63450U 25069T   26005.17337274  .00028420  00000+0  96753-3 0  9995
2 63450  53.1583  77.2515 0001355  70.6438 289.4709 15.30215548 43633
STARLINK-33740          
1 63451U 25069U   26005.19448074  .00042727  00000+0  14461-2 0  9990
2 63451  53.1603  77.3797 0001503  83.9423 276.1749 15.30208362 43572
STARLINK-33763          
1 63452U 25069V   26004.91738975  .00041259  00000+0  13969-2 0  9993
2 63452  53.1603  78.4832 0001064  73.6468 286.4650 15.30213873 43648
